{
    "links": {
        "self": "http://www.neowsapp.com/rest/v1/neo/3829456?api_key=iIulBulltgU6a56xZRHN4H3l9WmuAYTsLGpBGhQ2"
    },
    "id": "3829456",
    "neo_reference_id": "3829456",
    "name": "(2018 RZ6)",
    "designation": "2018 RZ6",
    "nasa_jpl_url": "http://ssd.jpl.nasa.gov/sbdb.cgi?sstr=3829456",
    "absolute_magnitude_h": 22.7,
    "estimated_diameter": {
        "kilometers": {
            "estimated_diameter_min": 0.0766575574,
            "estimated_diameter_max": 0.1714115092
        },
        "meters": {
            "estimated_diameter_min": 76.6575573531,
            "estimated_diameter_max": 171.4115092306
        },
        "miles": {
            "estimated_diameter_min": 0.0476327831,
            "estimated_diameter_max": 0.1065101409
        },
        "feet": {
            "estimated_diameter_min": 251.5011804664,
            "estimated_diameter_max": 562.3737359442
        }
    },
    "is_potentially_hazardous_asteroid": false,
    "close_approach_data": [
        {
            "close_approach_date": "2018-09-23",
            "close_approach_date_full": "2018-Sep-23 19:54",
            "epoch_date_close_approach": 1537732440000,
            "relative_velocity": {
                "kilometers_per_second": "15.2941742496",
                "kilometers_per_hour": "55059.02729843",
                "miles_per_hour": "34211.5383788495"
            },
            "miss_distance": {
                "astronomical": "0.128310167",
                "lunar": "49.912654963",
                "kilometers": "19194927.68254429",
                "miles": "11927174.991479602"
            },
            "orbiting_body": "Earth"
        }
    ],
    "orbital_data": {
        "orbit_id": "2",
        "orbit_determination_date": "2018-09-18 07:28:28",
        "first_observation_date": "2018-09-12",
        "last_observation_date": "2018-09-18",
        "data_arc_in_days": 6,
        "observations_used": 34,
        "orbit_uncertainty": "9",
        "minimum_orbit_intersection": ".0262989",
        "jupiter_tisserand_invariant": "4.203",
        "epoch_osculation": "2458375.5",
        "eccentricity": ".4414289093888172",
        "semi_major_axis": "1.606858962960492",
        "inclination": "14.77807614722049",
        "ascending_node_longitude": "5.047439272527153",
        "orbital_period": "743.9865190588245",
        "perihelion_distance": ".8975449633991962",
        "perihelion_argument": "56.57655579784532",
        "aphelion_distance": "2.316172962521788",
        "perihelion_time": "2458427.907537837349",
        "mean_anomaly": "334.6410544571253",
        "mean_motion": ".4838797354223781",
        "equinox": "J2000",
        "orbit_class": {
            "orbit_class_type": "APO",
            "orbit_class_description": "Near-Earth asteroid orbits which cross the Earth’s orbit similar to that of 1862 Apollo",
            "orbit_class_range": "a (semi-major axis) > 1.0 AU; q (perihelion) < 1.017 AU"
        }
    },
    "is_sentry_object": false
}